start=new Date('2022-11-06T00:00:00.000Z').valueOf();
sats=[{"INCLINATION":"53.2170","EPOCH":"2022-11-05T22:00:01.999584","DECAY_DATE":null,"NORAD_CAT_ID":"53891","PERIOD":"91.788","EPHEMERIS_TYPE":"0","ELEMENT_SET_NO":"999","MEAN_MOTION_DOT":"-0.01179510","CLASSIFICATION_TYPE":"U","APOAPSIS":"363.113","TLE_LINE1":"1 53891U 22119F   22309.91668981 -.01179510  00000-0 -11176-1 0  9998","SITE":"AFETR","OBJECT_ID":"2022-119F","OBJECT_TYPE":"PAYLOAD","COUNTRY_CODE":"US","REF_FRAME":"TEME","PERIAPSIS":"361.365","LAUNCH_DATE":"2022-09-24","FILE":"3646512","ECCENTRICITY":"0.00012970","MEAN_MOTION_DDOT":"0.0000000000000","REV_AT_EPOCH":"130","ARG_OF_PERICENTER":"40.7310","OBJECT_NAME":"STARLINK-5041","TLE_LINE2":"2 53891  53.2170  45.4086 0001297  40.7310 263.2325 15.68833266  1302","BSTAR":"-0.01117600000000","MEAN_ANOMALY":"263.2325","RA_OF_ASC_NODE":"45.4086","MEAN_ELEMENT_THEORY":"SGP4","SEMIMAJOR_AXIS":"6740.374","CENTER_NAME":"EARTH","GP_ID":"217021753","MEAN_MOTION":"15.68833266","TIME_SYSTEM":"UTC","RCS_SIZE":"LARGE"},{"CLASSIFICATION_TYPE":"U","SITE":"AFETR","TLE_LINE1":"1 53892U 22119G   22309.91668981 -.00902073  00000-0 -84632-2 0  9994","APOAPSIS":"363.134","EPOCH":"2022-11-05T22:00:01.999584","NORAD_CAT_ID":"53892","DECAY_DATE":null,"INCLINATION":"53.2165","EPHEMERIS_TYPE":"0","ELEMENT_SET_NO":"999","MEAN_MOTION_DOT":"-0.00902073","PERIOD":"91.789","ARG_OF_PERICENTER":"341.9576","BSTAR":"-0.00846320000000","TLE_LINE2":"2 53892  53.2165  45.4000 0001262 341.9576 326.1820 15.68817592  1308","OBJECT_NAME":"STARLINK-5046","ECCENTRICITY":"0.00012620","REV_AT_EPOCH":"130","MEAN_MOTION_DDOT":"0.0000000000000","MEAN_MOTION":"15.68817592","GP_ID":"217020543","RCS_SIZE":"LARGE","TIME_SYSTEM":"UTC","RA_OF_ASC_NODE":"45.4000","MEAN_ELEMENT_THEORY":"SGP4","MEAN_ANOMALY":"326.1820","CENTER_NAME":"EARTH","SEMIMAJOR_AXIS":"6740.419","OBJECT_TYPE":"PAYLOAD","OBJECT_ID":"2022-119G","LAUNCH_DATE":"2022-09-24","FILE":"3646512","REF_FRAME":"TEME","COUNTRY_CODE":"US","PERIAPSIS":"361.433"},{"MEAN_MOTION_DOT":"-0.01028284","ELEMENT_SET_NO":"999","EPHEMERIS_TYPE":"0","PERIOD":"91.788","DECAY_DATE":null,"NORAD_CAT_ID":"53893","EPOCH":"2022-11-05T22:00:01.999584","INCLINATION":"53.2168","SITE":"AFETR","TLE_LINE1":"1 53893U 22119H   22309.91668981 -.01028284  00000-0 -97671-2 0  9996","APOAPSIS":"363.053","CLASSIFICATION_TYPE":"U","FILE":"3646157","LAUNCH_DATE":"2022-09-24","PERIAPSIS":"361.385","COUNTRY_CODE":"US","REF_FRAME":"TEME","OBJECT_TYPE":"PAYLOAD","OBJECT_ID":"2022-119H","TIME_SYSTEM":"UTC","RCS_SIZE":"LARGE","MEAN_MOTION":"15.68840104","GP_ID":"216988171","SEMIMAJOR_AXIS":"6740.354","CENTER_NAME":"EARTH","MEAN_ANOMALY":"256.7933","RA_OF_ASC_NODE":"45.4033","MEAN_ELEMENT_THEORY":"SGP4","OBJECT_NAME":"STARLINK-5052","TLE_LINE2":"2 53893  53.2168  45.4033 0001237  49.6858 256.7933 15.68840104  7039","BSTAR":"-0.00976710000000","ARG_OF_PERICENTER":"49.6858","MEAN_MOTION_DDOT":"0.0000000000000","REV_AT_EPOCH":"703","ECCENTRICITY":"0.00012370"},{"REV_AT_EPOCH":"130","MEAN_MOTION_DDOT":"0.0000000000000","ECCENTRICITY":"0.00004810","TLE_LINE2":"2 53894  53.2169  45.4078 0000481  40.8072 263.9907 15.68873608  1301","BSTAR":"-0.01118200000000","OBJECT_NAME":"STARLINK-5043","ARG_OF_PERICENTER":"40.8072","CENTER_NAME":"EARTH","SEMIMAJOR_AXIS":"6740.258","RA_OF_ASC_NODE":"45.4078","MEAN_ELEMENT_THEORY":"SGP4","MEAN_ANOMALY":"263.9907","RCS_SIZE":"LARGE","TIME_SYSTEM":"UTC","GP_ID":"217021134","MEAN_MOTION":"15.68873608","OBJECT_ID":"2022-119J","OBJECT_TYPE":"PAYLOAD","PERIAPSIS":"361.799","REF_FRAME":"TEME","COUNTRY_CODE":"US","FILE":"3646512","LAUNCH_DATE":"2022-09-24","CLASSIFICATION_TYPE":"U","APOAPSIS":"362.447","TLE_LINE1":"1 53894U 22119J   22309.91668981 -.01181572  00000-0 -11182-1 0  9999","SITE":"AFETR","INCLINATION":"53.2169","NORAD_CAT_ID":"53894","DECAY_DATE":null,"EPOCH":"2022-11-05T22:00:01.999584","PERIOD":"91.786","MEAN_MOTION_DOT":"-0.01181572","ELEMENT_SET_NO":"999","EPHEMERIS_TYPE":"0"},{"BSTAR":"-0.01112000000000","TLE_LINE2":"2 53895  53.2169  45.4027 0000719  35.0706 272.1516 15.68971936  7037","OBJECT_NAME":"STARLINK-5032","ARG_OF_PERICENTER":"35.0706","REV_AT_EPOCH":"703","MEAN_MOTION_DDOT":"0.0000000000000","ECCENTRICITY":"0.00007190","TIME_SYSTEM":"UTC","RCS_SIZE":"LARGE","GP_ID":"216988670","MEAN_MOTION":"15.68971936","CENTER_NAME":"EARTH","SEMIMAJOR_AXIS":"6739.977","MEAN_ELEMENT_THEORY":"SGP4","RA_OF_ASC_NODE":"45.4027","MEAN_ANOMALY":"272.1516","OBJECT_TYPE":"PAYLOAD","OBJECT_ID":"2022-119K","FILE":"3646157","LAUNCH_DATE":"2022-09-24","PERIAPSIS":"361.357","REF_FRAME":"TEME","COUNTRY_CODE":"US","CLASSIFICATION_TYPE":"U","TLE_LINE1":"1 53895U 22119K   22309.91668981 -.01180083  00000-0 -11120-1 0  9998","APOAPSIS":"362.326","SITE":"AFETR","NORAD_CAT_ID":"53895","DECAY_DATE":null,"EPOCH":"2022-11-05T22:00:01.999584","INCLINATION":"53.2169","MEAN_MOTION_DOT":"-0.01180083","ELEMENT_SET_NO":"999","EPHEMERIS_TYPE":"0","PERIOD":"91.780"},{"DECAY_DATE":null,"NORAD_CAT_ID":"53896","EPOCH":"2022-11-05T22:00:01.999584","INCLINATION":"53.2169","MEAN_MOTION_DOT":"-0.01027030","EPHEMERIS_TYPE":"0","ELEMENT_SET_NO":"999","PERIOD":"91.781","CLASSIFICATION_TYPE":"U","APOAPSIS":"362.861","TLE_LINE1":"1 53896U 22119L   22309.91668981 -.01027030  00000-0 -97102-2 0  9996","SITE":"AFETR","OBJECT_TYPE":"PAYLOAD","OBJECT_ID":"2022-119L","FILE":"3646512","LAUNCH_DATE":"2022-09-24","PERIAPSIS":"360.967","COUNTRY_CODE":"US","REF_FRAME":"TEME","OBJECT_NAME":"STARLINK-5037","BSTAR":"-0.00971020000000","TLE_LINE2":"2 53896  53.2169  45.3997 0001405  27.1932 281.7496 15.68946604  1300","ARG_OF_PERICENTER":"27.1932","MEAN_MOTION_DDOT":"0.0000000000000","REV_AT_EPOCH":"130","ECCENTRICITY":"0.00014050","TIME_SYSTEM":"UTC","RCS_SIZE":"LARGE","GP_ID":"217020961","MEAN_MOTION":"15.68946604","SEMIMAJOR_AXIS":"6740.049","CENTER_NAME":"EARTH","MEAN_ANOMALY":"281.7496","RA_OF_ASC_NODE":"45.3997","MEAN_ELEMENT_THEORY":"SGP4"},{"INCLINATION":"53.2169","NORAD_CAT_ID":"53897","DECAY_DATE":null,"EPOCH":"2022-11-05T22:00:01.999584","PERIOD":"91.794","MEAN_MOTION_DOT":"-0.00921984","ELEMENT_SET_NO":"999","EPHEMERIS_TYPE":"0","CLASSIFICATION_TYPE":"U","TLE_LINE1":"1 53897U 22119M   22309.91668981 -.00921984  00000-0 -87006-2 0  9999","APOAPSIS":"363.650","SITE":"AFETR","OBJECT_ID":"2022-119M","OBJECT_TYPE":"PAYLOAD","PERIAPSIS":"361.454","REF_FRAME":"TEME","COUNTRY_CODE":"US","FILE":"3646147","LAUNCH_DATE":"2022-09-24","REV_AT_EPOCH":"703","MEAN_MOTION_DDOT":"0.0000000000000","ECCENTRICITY":"0.00016290","TLE_LINE2":"2 53897  53.2169  45.4048 0001629  24.0301 281.6535 15.68724025  7033","BSTAR":"-0.00870060000000","OBJECT_NAME":"STARLINK-5035","ARG_OF_PERICENTER":"24.0301","CENTER_NAME":"EARTH","SEMIMAJOR_AXIS":"6740.687","MEAN_ELEMENT_THEORY":"SGP4","RA_OF_ASC_NODE":"45.4048","MEAN_ANOMALY":"281.6535","TIME_SYSTEM":"UTC","RCS_SIZE":"LARGE","MEAN_MOTION":"15.68724025","GP_ID":"216988182"},{"FILE":"3646148","LAUNCH_DATE":"2022-09-24","PERIAPSIS":"357.772","COUNTRY_CODE":"US","REF_FRAME":"TEME","OBJECT_TYPE":"PAYLOAD","OBJECT_ID":"2022-119N","RCS_SIZE":"LARGE","TIME_SYSTEM":"UTC","GP_ID":"216988687","MEAN_MOTION":"15.68901934","SEMIMAJOR_AXIS":"6740.177","CENTER_NAME":"EARTH","MEAN_ANOMALY":"35.3669","RA_OF_ASC_NODE":"45.3930","MEAN_ELEMENT_THEORY":"SGP4","OBJECT_NAME":"STARLINK-5044","TLE_LINE2":"2 53898  53.2163  45.3930 0006335 276.0744  35.3669 15.68901934  7034","BSTAR":"-0.00768120000000","ARG_OF_PERICENTER":"276.0744","MEAN_MOTION_DDOT":"0.0000000000000","REV_AT_EPOCH":"703","ECCENTRICITY":"0.00063350","MEAN_MOTION_DOT":"-0.00818452","ELEMENT_SET_NO":"999","EPHEMERIS_TYPE":"0","PERIOD":"91.784","DECAY_DATE":null,"NORAD_CAT_ID":"53898","EPOCH":"2022-11-05T22:00:01.999584","INCLINATION":"53.2163","APOAPSIS":"366.312","TLE_LINE1":"1 53898U 22119N   22309.91668981 -.00818452  00000-0 -76812-2 0  9998","SITE":"AFETR","CLASSIFICATION_TYPE":"U"},{"OBJECT_ID":"2022-119P","OBJECT_TYPE":"PAYLOAD","COUNTRY_CODE":"US","REF_FRAME":"TEME","PERIAPSIS":"358.024","LAUNCH_DATE":"2022-09-24","FILE":"3646148","ECCENTRICITY":"0.00063080","MEAN_MOTION_DDOT":"0.0000000000000","REV_AT_EPOCH":"703","ARG_OF_PERICENTER":"272.8644","OBJECT_NAME":"STARLINK-5042","BSTAR":"-0.00706820000000","TLE_LINE2":"2 53899  53.2166  45.3957 0006308 272.8644  37.7722 15.68820347  7034","MEAN_ANOMALY":"37.7722","RA_OF_ASC_NODE":"45.3957","MEAN_ELEMENT_THEORY":"SGP4","SEMIMAJOR_AXIS":"6740.411","CENTER_NAME":"EARTH","MEAN_MOTION":"15.68820347","GP_ID":"216988691","RCS_SIZE":"LARGE","TIME_SYSTEM":"UTC","INCLINATION":"53.2166","EPOCH":"2022-11-05T22:00:01.999584","DECAY_DATE":null,"NORAD_CAT_ID":"53899","PERIOD":"91.789","EPHEMERIS_TYPE":"0","ELEMENT_SET_NO":"999","MEAN_MOTION_DOT":"-0.00756251","CLASSIFICATION_TYPE":"U","SITE":"AFETR","TLE_LINE1":"1 53899U 22119P   22309.91668981 -.00756251  00000-0 -70682-2 0  9996","APOAPSIS":"366.528"},{"EPOCH":"2022-11-05T22:00:01.999584","DECAY_DATE":null,"NORAD_CAT_ID":"53900","INCLINATION":"53.2175","ELEMENT_SET_NO":"999","EPHEMERIS_TYPE":"0","MEAN_MOTION_DOT":"-0.00668347","PERIOD":"91.786","CLASSIFICATION_TYPE":"U","APOAPSIS":"366.098","TLE_LINE1":"1 53900U 22119Q   22309.91668981 -.00668347  00000-0 -61729-2 0  9999","SITE":"AFETR","OBJECT_TYPE":"PAYLOAD","OBJECT_ID":"2022-119Q","LAUNCH_DATE":"2022-09-24","FILE":"3646148","COUNTRY_CODE":"US","REF_FRAME":"TEME","PERIAPSIS":"358.236","ARG_OF_PERICENTER":"278.1430","OBJECT_NAME":"STARLINK-5045","BSTAR":"-0.00617290000000","TLE_LINE2":"2 53900  53.2175  45.3896 0005832 278.1430  34.9729 15.68858340  7032","ECCENTRICITY":"0.00058320","MEAN_MOTION_DDOT":"0.0000000000000","REV_AT_EPOCH":"703","GP_ID":"216988186","MEAN_MOTION":"15.68858340","TIME_SYSTEM":"UTC","RCS_SIZE":"LARGE","MEAN_ANOMALY":"34.9729","RA_OF_ASC_NODE":"45.3896","MEAN_ELEMENT_THEORY":"SGP4","SEMIMAJOR_AXIS":"6740.302","CENTER_NAME":"EARTH"}];
